SL-8 R/B                
1 21088U 91006B   26104.89264838  .00000121  00000+0  10615-3 0  9995
2 21088  82.9414 143.1256 0021034 295.2924 238.4320 13.77500992769056
OKEAN-3                 
1 21397U 91039A   26104.78346622  .00001082  00000+0  74099-4 0  9998
2 21397  82.5140 301.8628 0013768 202.2200 157.8432 15.05012181870464
COSMOS 2151             
1 21422U 91042A   26104.83480098  .00001065  00000+0  82882-4 0  9993
2 21422  82.4976  48.8022 0010874 302.3617  57.6554 15.00264645868619
SL-14 R/B               
1 21423U 91042B   26104.61352172  .00000212  00000+0  23802-4 0  9991
2 21423  82.4958 186.5065 0018395 120.8150 239.4878 14.81864717858395
ERS-1                   
1 21574U 91050A   26104.77317978  .00000175  00000+0  70569-4 0  9999
2 21574  98.7848 123.9107 0033160  95.2387 265.2585 14.39477137820925
ARIANE 40 R/B           
1 21610U 91050F   26104.73832470  .00000147  00000+0  56491-4 0  9992
2 21610  98.1941 155.6086 0002435 349.3227  10.7912 14.42919857824193
INTERCOSMOS 25          
1 21819U 91086A   26104.56338132  .00000737  00000+0  13907-3 0  9998
2 21819  82.5992 288.3138 1485955  39.6282 330.4396 12.12113784501035
SL-8 R/B                
1 21876U 92008B   26104.87312858  .00000010  00000+0 -57248-5 0  9990
2 21876  82.9262 240.8580 0035303  35.5917  79.8086 13.75970162714399
SL-8 R/B                
1 21938U 92020B   26104.79356528 -.00000027  00000+0 -43576-4 0  9993
2 21938  82.9276 126.9493 0028676 194.2583 339.2402 13.75549897706097
USA 81                  
1 21949U 92023A   26104.77509491  .00000132  00000+0  41562-4 0  9993
2 21949  85.0033 110.6111 0001245  83.6071 276.5264 14.32379798 99951
COSMOS 2219             
1 22219U 92076A   26104.80965535  .00000122  00000+0  88550-4 0  9998
2 22219  71.0587 302.5632 0017353 150.6563 209.5538 14.14088864723482
SL-16 R/B               
1 22220U 92076B   26104.79476273  .00000207  00000+0  12697-3 0  9996
2 22220  70.9978 112.3203 0011475  31.0775 141.2053 14.16866057726941
COSMOS 2221             
1 22236U 92080A   26104.81632742  .00001157  00000+0  99741-4 0  9997
2 22236  82.5028 244.4653 0015583  73.4931 286.8002 14.96358267786197
SL-16 R/B               
1 22285U 92093B   26104.85184203 -.00000128  00000+0 -41350-4 0  9995
2 22285  71.0201 288.3518 0006448 257.3886 102.6516 14.15453596718277
COSMOS 2228             
1 22286U 92094A   26104.80840465  .00001246  00000+0  10464-3 0  9992
2 22286  82.5205 202.7313 0018153 175.9766 184.1607 14.97378684781461
SL-16 R/B               
1 22566U 93016B   26104.82522999  .00000015  00000+0  32137-4 0  9994
2 22566  71.0063 139.2897 0012680 268.8050  91.1620 14.15313965707286
COSMOS 2242             
1 22626U 93024A   26104.80640384  .00001183  00000+0  10101-3 0  9990
2 22626  82.5190 232.1632 0016348 179.1029 181.0226 14.96712110785793
