[{"OBJECT_NAME":"SL-8 R/B","OBJECT_ID":"1991-006B","EPOCH":"2026-04-14T21:25:24.820032","MEAN_MOTION":13.77500992,"ECCENTRICITY":0.0021034,"INCLINATION":82.9414,"RA_OF_ASC_NODE":143.1256,"ARG_OF_PERICENTER":295.2924,"MEAN_ANOMALY":238.432,"EPHEMERIS_TYPE":0,"CLASSIFICATION_TYPE":"U","NORAD_CAT_ID":21088,"ELEMENT_SET_NO":999,"REV_AT_EPOCH":76905,"BSTAR":0.00010615,"MEAN_MOTION_DOT":1.21e-6,"MEAN_MOTION_DDOT":0},{"OBJECT_NAME":"OKEAN-3","OBJECT_ID":"1991-039A","EPOCH":"2026-04-14T18:48:11.481408","MEAN_MOTION":15.05012181,"ECCENTRICITY":0.0013768,"INCLINATION":82.514,"RA_OF_ASC_NODE":301.8628,"ARG_OF_PERICENTER":202.22,"MEAN_ANOMALY":157.8432,"EPHEMERIS_TYPE":0,"CLASSIFICATION_TYPE":"U","NORAD_CAT_ID":21397,"ELEMENT_SET_NO":999,"REV_AT_EPOCH":87046,"BSTAR":7.4099e-5,"MEAN_MOTION_DOT":1.082e-5,"MEAN_MOTION_DDOT":0},{"OBJECT_NAME":"COSMOS 2151","OBJECT_ID":"1991-042A","EPOCH":"2026-04-14T20:02:06.804672","MEAN_MOTION":15.00264645,"ECCENTRICITY":0.0010874,"INCLINATION":82.4976,"RA_OF_ASC_NODE":48.8022,"ARG_OF_PERICENTER":302.3617,"MEAN_ANOMALY":57.6554,"EPHEMERIS_TYPE":0,"CLASSIFICATION_TYPE":"U","NORAD_CAT_ID":21422,"ELEMENT_SET_NO":999,"REV_AT_EPOCH":86861,"BSTAR":8.2882e-5,"MEAN_MOTION_DOT":1.065e-5,"MEAN_MOTION_DDOT":0},{"OBJECT_NAME":"SL-14 R/B","OBJECT_ID":"1991-042B","EPOCH":"2026-04-14T14:43:28.276608","MEAN_MOTION":14.81864717,"ECCENTRICITY":0.0018395,"INCLINATION":82.4958,"RA_OF_ASC_NODE":186.5065,"ARG_OF_PERICENTER":120.815,"MEAN_ANOMALY":239.4878,"EPHEMERIS_TYPE":0,"CLASSIFICATION_TYPE":"U","NORAD_CAT_ID":21423,"ELEMENT_SET_NO":999,"REV_AT_EPOCH":85839,"BSTAR":2.3802e-5,"MEAN_MOTION_DOT":2.12e-6,"MEAN_MOTION_DDOT":0},{"OBJECT_NAME":"ERS-1","OBJECT_ID":"1991-050A","EPOCH":"2026-04-14T18:33:22.732992","MEAN_MOTION":14.39477137,"ECCENTRICITY":0.003316,"INCLINATION":98.7848,"RA_OF_ASC_NODE":123.9107,"ARG_OF_PERICENTER":95.2387,"MEAN_ANOMALY":265.2585,"EPHEMERIS_TYPE":0,"CLASSIFICATION_TYPE":"U","NORAD_CAT_ID":21574,"ELEMENT_SET_NO":999,"REV_AT_EPOCH":82092,"BSTAR":7.0569e-5,"MEAN_MOTION_DOT":1.75e-6,"MEAN_MOTION_DDOT":0},{"OBJECT_NAME":"ARIANE 40 R/B","OBJECT_ID":"1991-050F","EPOCH":"2026-04-14T17:43:11.254080","MEAN_MOTION":14.42919857,"ECCENTRICITY":0.0002435,"INCLINATION":98.1941,"RA_OF_ASC_NODE":155.6086,"ARG_OF_PERICENTER":349.3227,"MEAN_ANOMALY":10.7912,"EPHEMERIS_TYPE":0,"CLASSIFICATION_TYPE":"U","NORAD_CAT_ID":21610,"ELEMENT_SET_NO":999,"REV_AT_EPOCH":82419,"BSTAR":5.6491e-5,"MEAN_MOTION_DOT":1.47e-6,"MEAN_MOTION_DDOT":0},{"OBJECT_NAME":"INTERCOSMOS 25","OBJECT_ID":"1991-086A","EPOCH":"2026-04-14T13:31:16.146048","MEAN_MOTION":12.12113784,"ECCENTRICITY":0.1485955,"INCLINATION":82.5992,"RA_OF_ASC_NODE":288.3138,"ARG_OF_PERICENTER":39.6282,"MEAN_ANOMALY":330.4396,"EPHEMERIS_TYPE":0,"CLASSIFICATION_TYPE":"U","NORAD_CAT_ID":21819,"ELEMENT_SET_NO":999,"REV_AT_EPOCH":50103,"BSTAR":0.00013907,"MEAN_MOTION_DOT":7.37e-6,"MEAN_MOTION_DDOT":0},{"OBJECT_NAME":"SL-8 R/B","OBJECT_ID":"1992-008B","EPOCH":"2026-04-14T20:57:18.309312","MEAN_MOTION":13.75970162,"ECCENTRICITY":0.0035303,"INCLINATION":82.9262,"RA_OF_ASC_NODE":240.858,"ARG_OF_PERICENTER":35.5917,"MEAN_ANOMALY":79.8086,"EPHEMERIS_TYPE":0,"CLASSIFICATION_TYPE":"U","NORAD_CAT_ID":21876,"ELEMENT_SET_NO":999,"REV_AT_EPOCH":71439,"BSTAR":-5.7248e-6,"MEAN_MOTION_DOT":1.0e-7,"MEAN_MOTION_DDOT":0},{"OBJECT_NAME":"SL-8 R/B","OBJECT_ID":"1992-020B","EPOCH":"2026-04-14T19:02:44.040192","MEAN_MOTION":13.75549897,"ECCENTRICITY":0.0028676,"INCLINATION":82.9276,"RA_OF_ASC_NODE":126.9493,"ARG_OF_PERICENTER":194.2583,"MEAN_ANOMALY":339.2402,"EPHEMERIS_TYPE":0,"CLASSIFICATION_TYPE":"U","NORAD_CAT_ID":21938,"ELEMENT_SET_NO":999,"REV_AT_EPOCH":70609,"BSTAR":-4.3576e-5,"MEAN_MOTION_DOT":-2.7e-7,"MEAN_MOTION_DDOT":0},{"OBJECT_NAME":"USA 81","OBJECT_ID":"1992-023A","EPOCH":"2026-04-14T18:36:08.200224","MEAN_MOTION":14.32379798,"ECCENTRICITY":0.0001245,"INCLINATION":85.0033,"RA_OF_ASC_NODE":110.6111,"ARG_OF_PERICENTER":83.6071,"MEAN_ANOMALY":276.5264,"EPHEMERIS_TYPE":0,"CLASSIFICATION_TYPE":"U","NORAD_CAT_ID":21949,"ELEMENT_SET_NO":999,"REV_AT_EPOCH":9995,"BSTAR":4.1562e-5,"MEAN_MOTION_DOT":1.32e-6,"MEAN_MOTION_DDOT":0},{"OBJECT_NAME":"COSMOS 2219","OBJECT_ID":"1992-076A","EPOCH":"2026-04-14T19:25:54.222240","MEAN_MOTION":14.14088864,"ECCENTRICITY":0.0017353,"INCLINATION":71.0587,"RA_OF_ASC_NODE":302.5632,"ARG_OF_PERICENTER":150.6563,"MEAN_ANOMALY":209.5538,"EPHEMERIS_TYPE":0,"CLASSIFICATION_TYPE":"U","NORAD_CAT_ID":22219,"ELEMENT_SET_NO":999,"REV_AT_EPOCH":72348,"BSTAR":8.855e-5,"MEAN_MOTION_DOT":1.22e-6,"MEAN_MOTION_DDOT":0},{"OBJECT_NAME":"SL-16 R/B","OBJECT_ID":"1992-076B","EPOCH":"2026-04-14T19:04:27.499872","MEAN_MOTION":14.16866057,"ECCENTRICITY":0.0011475,"INCLINATION":70.9978,"RA_OF_ASC_NODE":112.3203,"ARG_OF_PERICENTER":31.0775,"MEAN_ANOMALY":141.2053,"EPHEMERIS_TYPE":0,"CLASSIFICATION_TYPE":"U","NORAD_CAT_ID":22220,"ELEMENT_SET_NO":999,"REV_AT_EPOCH":72694,"BSTAR":0.00012697,"MEAN_MOTION_DOT":2.07e-6,"MEAN_MOTION_DDOT":0},{"OBJECT_NAME":"COSMOS 2221","OBJECT_ID":"1992-080A","EPOCH":"2026-04-14T19:35:30.689088","MEAN_MOTION":14.96358267,"ECCENTRICITY":0.0015583,"INCLINATION":82.5028,"RA_OF_ASC_NODE":244.4653,"ARG_OF_PERICENTER":73.4931,"MEAN_ANOMALY":286.8002,"EPHEMERIS_TYPE":0,"CLASSIFICATION_TYPE":"U","NORAD_CAT_ID":22236,"ELEMENT_SET_NO":999,"REV_AT_EPOCH":78619,"BSTAR":9.9741e-5,"MEAN_MOTION_DOT":1.157e-5,"MEAN_MOTION_DDOT":0},{"OBJECT_NAME":"SL-16 R/B","OBJECT_ID":"1992-093B","EPOCH":"2026-04-14T20:26:39.151392","MEAN_MOTION":14.15453596,"ECCENTRICITY":0.0006448,"INCLINATION":71.0201,"RA_OF_ASC_NODE":288.3518,"ARG_OF_PERICENTER":257.3886,"MEAN_ANOMALY":102.6516,"EPHEMERIS_TYPE":0,"CLASSIFICATION_TYPE":"U","NORAD_CAT_ID":22285,"ELEMENT_SET_NO":999,"REV_AT_EPOCH":71827,"BSTAR":-4.135e-5,"MEAN_MOTION_DOT":-1.28e-6,"MEAN_MOTION_DDOT":0},{"OBJECT_NAME":"COSMOS 2228","OBJECT_ID":"1992-094A","EPOCH":"2026-04-14T19:24:06.161760","MEAN_MOTION":14.97378684,"ECCENTRICITY":0.0018153,"INCLINATION":82.5205,"RA_OF_ASC_NODE":202.7313,"ARG_OF_PERICENTER":175.9766,"MEAN_ANOMALY":184.1607,"EPHEMERIS_TYPE":0,"CLASSIFICATION_TYPE":"U","NORAD_CAT_ID":22286,"ELEMENT_SET_NO":999,"REV_AT_EPOCH":78146,"BSTAR":0.00010464,"MEAN_MOTION_DOT":1.246e-5,"MEAN_MOTION_DDOT":0},{"OBJECT_NAME":"SL-16 R/B","OBJECT_ID":"1993-016B","EPOCH":"2026-04-14T19:48:19.871136","MEAN_MOTION":14.15313965,"ECCENTRICITY":0.001268,"INCLINATION":71.0063,"RA_OF_ASC_NODE":139.2897,"ARG_OF_PERICENTER":268.805,"MEAN_ANOMALY":91.162,"EPHEMERIS_TYPE":0,"CLASSIFICATION_TYPE":"U","NORAD_CAT_ID":22566,"ELEMENT_SET_NO":999,"REV_AT_EPOCH":70728,"BSTAR":3.2137e-5,"MEAN_MOTION_DOT":1.5e-7,"MEAN_MOTION_DDOT":0},{"OBJECT_NAME":"COSMOS 2242","OBJECT_ID":"1993-024A","EPOCH":"2026-04-14T19:21:13.291776","MEAN_MOTION":14.9671211,"ECCENTRICITY":0.0016348,"INCLINATION":82.519,"RA_OF_ASC_NODE":232.1632,"ARG_OF_PERICENTER":179.1029,"MEAN_ANOMALY":181.0226,"EPHEMERIS_TYPE":0,"CLASSIFICATION_TYPE":"U","NORAD_CAT_ID":22626,"ELEMENT_SET_NO":999,"REV_AT_EPOCH":78579,"BSTAR":0.00010101,"MEAN_MOTION_DOT":1.183e-5,"MEAN_MOTION_DDOT":0}]
